0 DMSP 5D-3 F16 DEB
1 28605U 03048F   13283.29042167  .00018855  00000-0  48253-2 0  9052
2 28605 098.9681 103.4322 0043423 078.9635 281.5367 14.49855205504658
0 DMSP 5D-3 F16 DEB
1 28605U 03048F   13285.29173779  .00020484  00000-0  52218-2 0  9066
2 28605 098.9737 105.5840 0045791 077.1893 283.6826 14.49952772504947
0 DMSP 5D-3 F16 DEB
1 28605U 03048F   13287.29284742  .00025035  00000-0  63859-2 0  9072
2 28605 099.0239 107.6441 0037519 076.8064 284.1567 14.50078046505237
0 DMSP 5D-3 F16 DEB
1 28605U 03048F   13289.29373521  .00025654  00000-0  65199-2 0  9085
2 28605 099.0136 109.7999 0040115 067.0518 293.4799 14.50184284505520
0 DMSP 5D-3 F16 DEB
1 28605U 03048F   13290.25966801  .00025753  00000-0  65157-2 0  9097
2 28605 098.9780 110.8392 0046245 049.8412 310.5931 14.50237117505662
0 DMSP 5D-3 F16 DEB
1 28605U 03048F   13291.70851451  .00026887  00000-0  68155-2 0  9104
2 28605 098.9633 112.3983 0038906 051.0875 309.5945 14.50323350505876
0 DMSP 5D-3 F16 DEB
1 28605U 03048F   13292.32937241  .00027404  00000-0  69138-2 0  9114
2 28605 098.9633 113.0590 0045936 045.4841 314.9261 14.50362390505967
0 DMSP 5D-3 F16 DEB
1 28605U 03048F   13293.29519857  .00028259  00000-0  71250-2 0  9128
2 28605 098.9623 114.0867 0044529 042.2409 318.2605 14.50420526506108
0 DMSP 5D-3 F16 DEB
1 28605U 03048F   13294.32994402  .00028040  00000-0  70623-2 0  9138
2 28605 098.9616 115.1870 0044402 038.7318 321.6838 14.50476121506259
0 DMSP 5D-3 F16 DEB
1 28605U 03048F   13295.29568192  .00026936  00000-0  67739-2 0  9145
2 28605 098.9624 116.2149 0045889 035.8553 324.4657 14.50519262506397
